STARLINK-35454          
1 66236U 25245C   25325.16668980  .00106250  00000+0  18973-2 0  9995
2 66236  53.1605  71.4246 0000853  82.3979 238.7074 15.49237939  4471
STARLINK-35557          
1 66237U 25245D   25325.16668980 -.00030962  00000+0 -55080-3 0  9995
2 66237  53.1606  71.4205 0000868 100.6778 222.3306 15.49311396  4630
STARLINK-35556          
1 66238U 25245E   25325.16668980 -.00013244  00000+0 -23049-3 0  9990
2 66238  53.1606  71.4163 0000747  91.9028 233.0075 15.49308081  4639
STARLINK-35554          
1 66239U 25245F   25325.16668980  .00103597  00000+0  18505-2 0  9990
2 66239  53.1608  71.4123 0000940  78.7982 248.0561 15.49241080  4478
STARLINK-35546          
1 66240U 25245G   25325.16668980  .00115875  00000+0  20658-2 0  9996
2 66240  53.1607  71.4090 0001430  99.8442 228.8272 15.49238772  4639
STARLINK-35497          
1 66241U 25245H   25325.16668980  .00111856  00000+0  19955-2 0  9990
2 66241  53.1607  71.4053 0001510 107.4203 223.1738 15.49237635  4585
STARLINK-35480          
1 66242U 25245J   25325.16668980  .00107517  00000+0  19191-2 0  9992
2 66242  53.1607  71.3931 0000774  90.2034 246.2201 15.49244531  4632
STARLINK-35495          
1 66243U 25245K   25325.16668980  .00113738  00000+0  20285-2 0  9991
2 66243  53.1610  71.4018 0001398 100.7354 231.7710 15.49237935  4633
STARLINK-35517          
1 66244U 25245L   25325.00002315  .00033346  00000+0  60637-3 0  9991
2 66244  53.1606  72.1944 0001371  97.9214  26.4126 15.49247493  4391
STARLINK-35503          
1 66245U 25245M   25325.16668980  .00105157  00000+0  18776-2 0  9991
2 66245  53.1608  71.3873 0000779  81.6629 256.6777 15.49246029  4581
STARLINK-35434          
1 66246U 25245N   25325.16668980  .00107657  00000+0  19215-2 0  9998
2 66246  53.1607  71.3829 0000785  86.3351 253.9192 15.49244338  4428
STARLINK-35481          
1 66247U 25245P   25325.16668980  .00106037  00000+0  18930-2 0  9993
2 66247  53.1608  71.3792 0000716  83.9963 258.1751 15.49246558  4632
